[{"OBJECT_NAME":"KANOPUS-V 4","OBJECT_ID":"2018-014B","EPOCH":"2026-03-09T22:48:00.889056","MEAN_MOTION":15.22813706,"ECCENTRICITY":0.00013304,"INCLINATION":97.365,"RA_OF_ASC_NODE":336.6243,"ARG_OF_PERICENTER":69.4905,"MEAN_ANOMALY":290.6475,"EPHEMERIS_TYPE":0,"CLASSIFICATION_TYPE":"U","NORAD_CAT_ID":43181,"ELEMENT_SET_NO":999,"REV_AT_EPOCH":44963,"BSTAR":0.00051006309,"MEAN_MOTION_DOT":0.00011868,"MEAN_MOTION_DDOT":0},{"OBJECT_NAME":"TRANSPORTER-12 OBJECT BR","OBJECT_ID":"2025-009BR","EPOCH":"2026-03-09T17:25:41.408544","MEAN_MOTION":15.22079833,"ECCENTRICITY":0.00038612,"INCLINATION":97.4001,"RA_OF_ASC_NODE":149.3786,"ARG_OF_PERICENTER":342.5368,"MEAN_ANOMALY":17.5735,"EPHEMERIS_TYPE":0,"CLASSIFICATION_TYPE":"U","NORAD_CAT_ID":62672,"ELEMENT_SET_NO":999,"REV_AT_EPOCH":12125,"BSTAR":0.00024627626,"MEAN_MOTION_DOT":5.568e-5,"MEAN_MOTION_DDOT":0}]
